[{"OBJECT_NAME":"SL-14 R/B","OBJECT_ID":"1986-006B","EPOCH":"2026-03-19T05:04:33.902400","MEAN_MOTION":14.86828666,"ECCENTRICITY":0.00752297,"INCLINATION":82.5238,"RA_OF_ASC_NODE":250.7728,"ARG_OF_PERICENTER":240.6285,"MEAN_ANOMALY":118.7405,"EPHEMERIS_TYPE":0,"CLASSIFICATION_TYPE":"U","NORAD_CAT_ID":16496,"ELEMENT_SET_NO":999,"REV_AT_EPOCH":15062,"BSTAR":7.2284581e-5,"MEAN_MOTION_DOT":7.04e-6,"MEAN_MOTION_DDOT":0},{"OBJECT_NAME":"COSMOS 1743","OBJECT_ID":"1986-034A","EPOCH":"2026-03-19T04:57:02.846016","MEAN_MOTION":15.59260213,"ECCENTRICITY":0.00023915,"INCLINATION":82.5283,"RA_OF_ASC_NODE":63.8345,"ARG_OF_PERICENTER":208.9636,"MEAN_ANOMALY":151.1488,"EPHEMERIS_TYPE":0,"CLASSIFICATION_TYPE":"U","NORAD_CAT_ID":16719,"ELEMENT_SET_NO":999,"REV_AT_EPOCH":18173,"BSTAR":0.00039384899,"MEAN_MOTION_DOT":0.00031027,"MEAN_MOTION_DDOT":0},{"OBJECT_NAME":"SL-14 R/B","OBJECT_ID":"1986-046B","EPOCH":"2026-03-19T05:41:17.508480","MEAN_MOTION":14.85599431,"ECCENTRICITY":0.00226932,"INCLINATION":82.4788,"RA_OF_ASC_NODE":71.1577,"ARG_OF_PERICENTER":192.685,"MEAN_ANOMALY":167.3798,"EPHEMERIS_TYPE":0,"CLASSIFICATION_TYPE":"U","NORAD_CAT_ID":16792,"ELEMENT_SET_NO":999,"REV_AT_EPOCH":12782,"BSTAR":4.6659273e-5,"MEAN_MOTION_DOT":4.3e-6,"MEAN_MOTION_DDOT":0},{"OBJECT_NAME":"SL-14 R/B","OBJECT_ID":"1986-055B","EPOCH":"2026-03-19T14:06:18.444672","MEAN_MOTION":14.85651085,"ECCENTRICITY":0.0017538,"INCLINATION":82.5182,"RA_OF_ASC_NODE":117.3694,"ARG_OF_PERICENTER":301.9754,"MEAN_ANOMALY":219.3949,"EPHEMERIS_TYPE":0,"CLASSIFICATION_TYPE":"U","NORAD_CAT_ID":16882,"ELEMENT_SET_NO":999,"REV_AT_EPOCH":12083,"BSTAR":3.9802e-5,"MEAN_MOTION_DOT":3.7e-6,"MEAN_MOTION_DDOT":0},{"OBJECT_NAME":"AJISAI (EGS)","OBJECT_ID":"1986-061A","EPOCH":"2026-03-19T21:41:45.252672","MEAN_MOTION":12.44515678,"ECCENTRICITY":0.0011307,"INCLINATION":50.0093,"RA_OF_ASC_NODE":61.9372,"ARG_OF_PERICENTER":313.3526,"MEAN_ANOMALY":69.0139,"EPHEMERIS_TYPE":0,"CLASSIFICATION_TYPE":"U","NORAD_CAT_ID":16908,"ELEMENT_SET_NO":999,"REV_AT_EPOCH":46927,"BSTAR":-9.3789e-5,"MEAN_MOTION_DOT":-1.11e-6,"MEAN_MOTION_DDOT":0},{"OBJECT_NAME":"SL-14 R/B","OBJECT_ID":"1987-024B","EPOCH":"2026-03-19T01:33:30.372768","MEAN_MOTION":14.86140912,"ECCENTRICITY":0.00170525,"INCLINATION":82.5244,"RA_OF_ASC_NODE":83.9491,"ARG_OF_PERICENTER":226.3165,"MEAN_ANOMALY":133.6639,"EPHEMERIS_TYPE":0,"CLASSIFICATION_TYPE":"U","NORAD_CAT_ID":17567,"ELEMENT_SET_NO":999,"REV_AT_EPOCH":8952,"BSTAR":4.5196222e-5,"MEAN_MOTION_DOT":4.21e-6,"MEAN_MOTION_DDOT":0},{"OBJECT_NAME":"COSMOS 1833","OBJECT_ID":"1987-027A","EPOCH":"2026-03-19T20:11:56.552928","MEAN_MOTION":14.1305153,"ECCENTRICITY":0.0023745,"INCLINATION":70.9196,"RA_OF_ASC_NODE":304.6823,"ARG_OF_PERICENTER":199.927,"MEAN_ANOMALY":160.0926,"EPHEMERIS_TYPE":0,"CLASSIFICATION_TYPE":"U","NORAD_CAT_ID":17589,"ELEMENT_SET_NO":999,"REV_AT_EPOCH":1175,"BSTAR":-0.00010075,"MEAN_MOTION_DOT":-2.37e-6,"MEAN_MOTION_DDOT":0},{"OBJECT_NAME":"SL-16 R/B","OBJECT_ID":"1987-027B","EPOCH":"2026-03-19T20:33:16.790976","MEAN_MOTION":14.17166703,"ECCENTRICITY":0.000305,"INCLINATION":70.9993,"RA_OF_ASC_NODE":255.0689,"ARG_OF_PERICENTER":119.1502,"MEAN_ANOMALY":240.9927,"EPHEMERIS_TYPE":0,"CLASSIFICATION_TYPE":"U","NORAD_CAT_ID":17590,"ELEMENT_SET_NO":999,"REV_AT_EPOCH":1678,"BSTAR":-2.7999e-5,"MEAN_MOTION_DOT":-1.04e-6,"MEAN_MOTION_DDOT":0},{"OBJECT_NAME":"SL-14 R/B","OBJECT_ID":"1987-038B","EPOCH":"2026-03-19T16:06:15.405696","MEAN_MOTION":14.85377715,"ECCENTRICITY":0.002042,"INCLINATION":82.4985,"RA_OF_ASC_NODE":287.4031,"ARG_OF_PERICENTER":128.8663,"MEAN_ANOMALY":231.4379,"EPHEMERIS_TYPE":0,"CLASSIFICATION_TYPE":"U","NORAD_CAT_ID":17912,"ELEMENT_SET_NO":999,"REV_AT_EPOCH":8071,"BSTAR":4.0453e-5,"MEAN_MOTION_DOT":3.74e-6,"MEAN_MOTION_DDOT":0},{"OBJECT_NAME":"COSMOS 1844","OBJECT_ID":"1987-041A","EPOCH":"2026-03-19T20:47:03.866208","MEAN_MOTION":14.14551421,"ECCENTRICITY":0.0030532,"INCLINATION":70.9009,"RA_OF_ASC_NODE":12.7113,"ARG_OF_PERICENTER":3.0163,"MEAN_ANOMALY":357.1136,"EPHEMERIS_TYPE":0,"CLASSIFICATION_TYPE":"U","NORAD_CAT_ID":17973,"ELEMENT_SET_NO":999,"REV_AT_EPOCH":502,"BSTAR":5.7404e-5,"MEAN_MOTION_DOT":6.2e-7,"MEAN_MOTION_DDOT":0},{"OBJECT_NAME":"SL-14 R/B","OBJECT_ID":"1987-055B","EPOCH":"2026-03-19T18:44:24.791136","MEAN_MOTION":14.85639718,"ECCENTRICITY":0.0020232,"INCLINATION":82.5024,"RA_OF_ASC_NODE":339.5231,"ARG_OF_PERICENTER":344.5978,"MEAN_ANOMALY":15.4619,"EPHEMERIS_TYPE":0,"CLASSIFICATION_TYPE":"U","NORAD_CAT_ID":18153,"ELEMENT_SET_NO":999,"REV_AT_EPOCH":7143,"BSTAR":4.2634e-5,"MEAN_MOTION_DOT":3.95e-6,"MEAN_MOTION_DDOT":0},{"OBJECT_NAME":"COSMOS 1867","OBJECT_ID":"1987-060A","EPOCH":"2026-03-19T20:24:54.978048","MEAN_MOTION":14.31504548,"ECCENTRICITY":0.001465,"INCLINATION":65.0095,"RA_OF_ASC_NODE":278.2489,"ARG_OF_PERICENTER":279.2677,"MEAN_ANOMALY":80.6751,"EPHEMERIS_TYPE":0,"CLASSIFICATION_TYPE":"U","NORAD_CAT_ID":18187,"ELEMENT_SET_NO":999,"REV_AT_EPOCH":2139,"BSTAR":2.2702e-5,"MEAN_MOTION_DOT":-4.0e-7,"MEAN_MOTION_DDOT":0},{"OBJECT_NAME":"SL-14 R/B","OBJECT_ID":"1988-001B","EPOCH":"2026-03-19T18:38:42.424224","MEAN_MOTION":14.85539045,"ECCENTRICITY":0.0017542,"INCLINATION":82.5161,"RA_OF_ASC_NODE":185.8755,"ARG_OF_PERICENTER":200.5633,"MEAN_ANOMALY":159.488,"EPHEMERIS_TYPE":0,"CLASSIFICATION_TYPE":"U","NORAD_CAT_ID":18749,"ELEMENT_SET_NO":999,"REV_AT_EPOCH":4352,"BSTAR":4.9675e-5,"MEAN_MOTION_DOT":4.54e-6,"MEAN_MOTION_DDOT":0},{"OBJECT_NAME":"COSMOS 1933","OBJECT_ID":"1988-020A","EPOCH":"2026-03-19T19:25:36.566400","MEAN_MOTION":15.18073807,"ECCENTRICITY":0.0004684,"INCLINATION":82.5105,"RA_OF_ASC_NODE":240.8964,"ARG_OF_PERICENTER":149.2126,"MEAN_ANOMALY":210.9383,"EPHEMERIS_TYPE":0,"CLASSIFICATION_TYPE":"U","NORAD_CAT_ID":18958,"ELEMENT_SET_NO":999,"REV_AT_EPOCH":5176,"BSTAR":0.00018891,"MEAN_MOTION_DOT":3.879e-5,"MEAN_MOTION_DDOT":0},{"OBJECT_NAME":"SL-3 R/B","OBJECT_ID":"1988-032B","EPOCH":"2026-03-19T20:53:58.593984","MEAN_MOTION":15.20018895,"ECCENTRICITY":0.0025328,"INCLINATION":97.5205,"RA_OF_ASC_NODE":62.0869,"ARG_OF_PERICENTER":194.56,"MEAN_ANOMALY":165.4908,"EPHEMERIS_TYPE":0,"CLASSIFICATION_TYPE":"U","NORAD_CAT_ID":19046,"ELEMENT_SET_NO":999,"REV_AT_EPOCH":5365,"BSTAR":0.00020015,"MEAN_MOTION_DOT":4.278e-5,"MEAN_MOTION_DDOT":0},{"OBJECT_NAME":"SL-16 R/B","OBJECT_ID":"1988-039B","EPOCH":"2026-03-19T15:12:30.321792","MEAN_MOTION":14.19617809,"ECCENTRICITY":0.0023259,"INCLINATION":71.015,"RA_OF_ASC_NODE":47.5192,"ARG_OF_PERICENTER":319.9974,"MEAN_ANOMALY":39.9436,"EPHEMERIS_TYPE":0,"CLASSIFICATION_TYPE":"U","NORAD_CAT_ID":19120,"ELEMENT_SET_NO":999,"REV_AT_EPOCH":95979,"BSTAR":-1.5717e-5,"MEAN_MOTION_DOT":-8.2e-7,"MEAN_MOTION_DDOT":0},{"OBJECT_NAME":"COSMOS 1953","OBJECT_ID":"1988-050A","EPOCH":"2026-03-19T15:23:15.442944","MEAN_MOTION":15.28679655,"ECCENTRICITY":0.0012678,"INCLINATION":82.5091,"RA_OF_ASC_NODE":148.2386,"ARG_OF_PERICENTER":91.428,"MEAN_ANOMALY":268.8412,"EPHEMERIS_TYPE":0,"CLASSIFICATION_TYPE":"U","NORAD_CAT_ID":19210,"ELEMENT_SET_NO":999,"REV_AT_EPOCH":3930,"BSTAR":0.0001935,"MEAN_MOTION_DOT":5.44e-5,"MEAN_MOTION_DDOT":0}]
